{
  "norad_id": 48994,
  "name": "ONEWEB-0276",
  "history": [
    {
      "epoch": "2026-03-28T20:35:22.159968Z",
      "apogee_km": 1199.1471796656779,
      "perigee_km": 1196.361827395489,
      "latitude_deg": 9.636597252699108e-05,
      "longitude_deg": 109.62745413878542,
      "height_km": 1200.744966324718,
      "semi_major_axis_km": 7575.891503530583,
      "eccentricity": 0.00018383,
      "inclination_deg": 87.9031,
      "raan_deg": 244.7421,
      "arg_perigee_deg": 93.9779,
      "mean_anomaly_deg": 266.1563,
      "mean_motion_rev_day": 13.16594821
    },
    {
      "epoch": "2026-03-29T03:53:06.660096Z",
      "apogee_km": 1199.145644037404,
      "perigee_km": 1196.360746801568,
      "latitude_deg": -7.093978367719478e-07,
      "longitude_deg": -0.1681900963239971,
      "height_km": 1200.743678550256,
      "semi_major_axis_km": 7575.890195419485,
      "eccentricity": 0.0001838,
      "inclination_deg": 87.9032,
      "raan_deg": 244.6815,
      "arg_perigee_deg": 93.9787,
      "mean_anomaly_deg": 266.1554,
      "mean_motion_rev_day": 13.16595162
    },
    {
      "epoch": "2026-03-30T03:35:46.433472Z",
      "apogee_km": 1199.1479708811185,
      "perigee_km": 1196.3615578901781,
      "latitude_deg": -1.5874846537562096e-05,
      "longitude_deg": 2.99540940410332,
      "height_km": 1200.7416637766034,
      "semi_major_axis_km": 7575.8917643856485,
      "eccentricity": 0.0001839,
      "inclination_deg": 87.9034,
      "raan_deg": 244.4846,
      "arg_perigee_deg": 93.8288,
      "mean_anomaly_deg": 266.3053,
      "mean_motion_rev_day": 13.16594753
    },
    {
      "epoch": "2026-03-30T10:53:30.891264Z",
      "apogee_km": 1199.1381616819199,
      "perigee_km": 1196.364477450361,
      "latitude_deg": 7.788951451394e-05,
      "longitude_deg": -106.79995067200757,
      "height_km": 1200.7349977971185,
      "semi_major_axis_km": 7575.88831956614,
      "eccentricity": 0.00018306,
      "inclination_deg": 87.9034,
      "raan_deg": 244.4241,
      "arg_perigee_deg": 93.713,
      "mean_anomaly_deg": 266.4211,
      "mean_motion_rev_day": 13.16595651
    },
    {
      "epoch": "2026-03-30T21:50:07.720512Z",
      "apogee_km": 1199.1367492642921,
      "perigee_km": 1196.3671557810294,
      "latitude_deg": 1.0448486836820962e-05,
      "longitude_deg": 88.50625600819515,
      "height_km": 1200.7376056137005,
      "semi_major_axis_km": 7575.8889525226605,
      "eccentricity": 0.00018279,
      "inclination_deg": 87.9035,
      "raan_deg": 244.3332,
      "arg_perigee_deg": 93.7997,
      "mean_anomaly_deg": 266.3343,
      "mean_motion_rev_day": 13.16595486
    },
    {
      "epoch": "2026-03-31T16:04:29.031744Z",
      "apogee_km": 1199.132726297934,
      "perigee_km": 1196.370557299134,
      "latitude_deg": 6.92764479391933e-05,
      "longitude_deg": 174.01700288614393,
      "height_km": 1200.7395785846315,
      "semi_major_axis_km": 7575.888641798533,
      "eccentricity": 0.0001823,
      "inclination_deg": 87.9037,
      "raan_deg": 244.1818,
      "arg_perigee_deg": 93.9048,
      "mean_anomaly_deg": 266.2292,
      "mean_motion_rev_day": 13.16595567
    },
    {
      "epoch": "2026-04-01T15:47:08.736864Z",
      "apogee_km": 1199.1231859705722,
      "perigee_km": 1196.376169461233,
      "latitude_deg": -1.637246199055374e-05,
      "longitude_deg": 177.18098567402404,
      "height_km": 1200.7376219778864,
      "semi_major_axis_km": 7575.886677715903,
      "eccentricity": 0.0001813,
      "inclination_deg": 87.9039,
      "raan_deg": 243.985,
      "arg_perigee_deg": 93.9253,
      "mean_anomaly_deg": 266.2085,
      "mean_motion_rev_day": 13.16596079
    },
    {
      "epoch": "2026-04-02T20:58:03.004896Z",
      "apogee_km": 1199.0877037405498,
      "perigee_km": 1196.137706805317,
      "latitude_deg": -1.0425834055259595e-05,
      "longitude_deg": 98.01411859994992,
      "height_km": 1200.6411865161529,
      "semi_major_axis_km": 7575.749705272933,
      "eccentricity": 0.0001947,
      "inclination_deg": 87.9042,
      "raan_deg": 243.7427,
      "arg_perigee_deg": 95.2409,
      "mean_anomaly_deg": 264.8944,
      "mean_motion_rev_day": 13.16631786
    },
    {
      "epoch": "2026-04-02T22:47:28.793184Z",
      "apogee_km": 1199.086477595767,
      "perigee_km": 1196.1248167652793,
      "latitude_deg": -1.4539447800382322e-05,
      "longitude_deg": 70.56666526345145,
      "height_km": 1200.835022081941,
      "semi_major_axis_km": 7575.742647180523,
      "eccentricity": 0.00019547,
      "inclination_deg": 87.9045,
      "raan_deg": 243.7276,
      "arg_perigee_deg": 103.0955,
      "mean_anomaly_deg": 257.0394,
      "mean_motion_rev_day": 13.16633626
    },
    {
      "epoch": "2026-04-03T18:51:19.912032Z",
      "apogee_km": 1199.1103848245866,
      "perigee_km": 1196.4315437684118,
      "latitude_deg": -6.489394606303994e-05,
      "longitude_deg": 128.6132608056417,
      "height_km": 1200.926147233894,
      "semi_major_axis_km": 7575.907964296499,
      "eccentricity": 0.0001768,
      "inclination_deg": 87.9047,
      "raan_deg": 243.5612,
      "arg_perigee_deg": 101.2407,
      "mean_anomaly_deg": 258.8922,
      "mean_motion_rev_day": 13.1659053
    }
  ]
}